[{"OBJECT_NAME":"STARLINK-11549 [DTC]","OBJECT_ID":"2025-019D","EPOCH":"2026-03-09T02:07:48.942624","MEAN_MOTION":15.70886667,"ECCENTRICITY":0.00021825,"INCLINATION":42.9986,"RA_OF_ASC_NODE":309.8386,"ARG_OF_PERICENTER":251.2651,"MEAN_ANOMALY":108.798,"EPHEMERIS_TYPE":0,"CLASSIFICATION_TYPE":"U","NORAD_CAT_ID":62832,"ELEMENT_SET_NO":999,"REV_AT_EPOCH":6378,"BSTAR":0.001353286,"MEAN_MOTION_DOT":0.00177302,"MEAN_MOTION_DDOT":0},{"OBJECT_NAME":"FLOCK 4BE-10","OBJECT_ID":"2024-149AM","EPOCH":"2026-03-09T23:11:04.477920","MEAN_MOTION":15.73804605,"ECCENTRICITY":0.00059918,"INCLINATION":97.3736,"RA_OF_ASC_NODE":155.157,"ARG_OF_PERICENTER":229.3829,"MEAN_ANOMALY":130.6914,"EPHEMERIS_TYPE":0,"CLASSIFICATION_TYPE":"U","NORAD_CAT_ID":60503,"ELEMENT_SET_NO":999,"REV_AT_EPOCH":8723,"BSTAR":0.0018232079,"MEAN_MOTION_DOT":0.00264399,"MEAN_MOTION_DDOT":0}]
